{
  "type": "FeatureCollection",
  "features": [
    {
      "type": "Feature",
      "properties": {
        "norad_id": 34079,
        "name": "IRIDIUM 33 DEB",
        "group": "iridium-33-debris",
        "lat": -55.05588444394904,
        "lon": -162.27095268011487,
        "alt_km": 630.878961372583,
        "timestamp": "2025-12-04T05:42:43.757088+00:00",
        "meta_object_name": "IRIDIUM 33 DEB",
        "meta_object_id": "1997-051CN",
        "meta_epoch": "2025-12-03T09:30:48.355200",
        "meta_mean_motion": 14.83132899,
        "meta_eccentricity": 0.00067221,
        "meta_inclination": 86.3782,
        "meta_ra_of_asc_node": 12.9106,
        "meta_arg_of_pericenter": 36.4792,
        "meta_mean_anomaly": 28.0106,
        "meta_ephemeris_type": 0,
        "meta_classification_type": "U",
        "meta_norad_cat_id": 34079,
        "meta_element_set_no": 999,
        "meta_rev_at_epoch": 88839,
        "meta_bstar": 0.0021223688,
        "meta_mean_motion_dot": 0.00017354,
        "meta_mean_motion_ddot": 0,
        "tle_line1": "1 34079U 97051CN  25337.39639300  .00017354  00000+0  21224-2 0  9990",
        "tle_line2": "2 34079  86.3782  12.9106 0006722  36.4792  28.0106 14.83132899888397"
      },
      "geometry": {
        "type": "Point",
        "coordinates": [
          -162.27095268011487,
          -55.05588444394904
        ]
      }
    },
    {
      "type": "Feature",
      "properties": {
        "norad_id": 34088,
        "name": "IRIDIUM 33 DEB",
        "group": "iridium-33-debris",
        "lat": 86.29016193432464,
        "lon": 137.5221390676276,
        "alt_km": 589.948018350322,
        "timestamp": "2025-12-04T05:42:43.757098+00:00",
        "meta_object_name": "IRIDIUM 33 DEB",
        "meta_object_id": "1997-051CX",
        "meta_epoch": "2025-12-03T15:22:04.075680",
        "meta_mean_motion": 14.90649163,
        "meta_eccentricity": 0.00051577,
        "meta_inclination": 86.3859,
        "meta_ra_of_asc_node": 34.9027,
        "meta_arg_of_pericenter": 210.2591,
        "meta_mean_anomaly": 275.3448,
        "meta_ephemeris_type": 0,
        "meta_classification_type": "U",
        "meta_norad_cat_id": 34088,
        "meta_element_set_no": 999,
        "meta_rev_at_epoch": 88606,
        "meta_bstar": 0.0037972295,
        "meta_mean_motion_dot": 0.00037388,
        "meta_mean_motion_ddot": 0,
        "tle_line1": "1 34088U 97051CX  25337.64032495  .00037388  00000+0  37972-2 0  9996",
        "tle_line2": "2 34088  86.3859  34.9027 0005157 210.2591 275.3448 14.90649163886061"
      },
      "geometry": {
        "type": "Point",
        "coordinates": [
          137.5221390676276,
          86.29016193432464
        ]
      }
    },
    {
      "type": "Feature",
      "properties": {
        "norad_id": 34091,
        "name": "IRIDIUM 33 DEB",
        "group": "iridium-33-debris",
        "lat": -33.99092105142658,
        "lon": -106.8033691170368,
        "alt_km": 641.2034420020473,
        "timestamp": "2025-12-04T05:42:43.757108+00:00",
        "meta_object_name": "IRIDIUM 33 DEB",
        "meta_object_id": "1997-051DA",
        "meta_epoch": "2025-12-03T12:31:35.787936",
        "meta_mean_motion": 14.80633508,
        "meta_eccentricity": 0.00329218,
        "meta_inclination": 86.3425,
        "meta_ra_of_asc_node": 71.0519,
        "meta_arg_of_pericenter": 326.4248,
        "meta_mean_anomaly": 33.4886,
        "meta_ephemeris_type": 0,
        "meta_classification_type": "U",
        "meta_norad_cat_id": 34091,
        "meta_element_set_no": 999,
        "meta_rev_at_epoch": 87730,
        "meta_bstar": 0.0066529067,
        "meta_mean_motion_dot": 0.00051895,
        "meta_mean_motion_ddot": 0,
        "tle_line1": "1 34091U 97051DA  25337.52194199  .00051895  00000+0  66529-2 0  9996",
        "tle_line2": "2 34091  86.3425  71.0519 0032921 326.4248  33.4886 14.80633508877301"
      },
      "geometry": {
        "type": "Point",
        "coordinates": [
          -106.8033691170368,
          -33.99092105142658
        ]
      }
    },
    {
      "type": "Feature",
      "properties": {
        "norad_id": 34097,
        "name": "IRIDIUM 33 DEB",
        "group": "iridium-33-debris",
        "lat": 85.32334959462045,
        "lon": 59.48262437255343,
        "alt_km": 736.1912251070144,
        "timestamp": "2025-12-04T05:42:43.757118+00:00",
        "meta_object_name": "IRIDIUM 33 DEB",
        "meta_object_id": "1997-051DG",
        "meta_epoch": "2025-12-03T12:34:25.588128",
        "meta_mean_motion": 14.34661365,
        "meta_eccentricity": 0.00836647,
        "meta_inclination": 86.2007,
        "meta_ra_of_asc_node": 5.4756,
        "meta_arg_of_pericenter": 32.0999,
        "meta_mean_anomaly": 328.5251,
        "meta_ephemeris_type": 0,
        "meta_classification_type": "U",
        "meta_norad_cat_id": 34097,
        "meta_element_set_no": 999,
        "meta_rev_at_epoch": 86987,
        "meta_bstar": 0.0018322264,
        "meta_mean_motion_dot": 5.41e-05,
        "meta_mean_motion_ddot": 0,
        "tle_line1": "1 34097U 97051DG  25337.52390727  .00005410  00000+0  18322-2 0  9997",
        "tle_line2": "2 34097  86.2007   5.4756 0083664  32.0999 328.5251 14.34661365869877"
      },
      "geometry": {
        "type": "Point",
        "coordinates": [
          59.48262437255343,
          85.32334959462045
        ]
      }
    },
    {
      "type": "Feature",
      "properties": {
        "norad_id": 34145,
        "name": "IRIDIUM 33 DEB",
        "group": "iridium-33-debris",
        "lat": 53.67477266030639,
        "lon": 151.1424527836243,
        "alt_km": 707.013514578236,
        "timestamp": "2025-12-04T05:42:43.757129+00:00",
        "meta_object_name": "IRIDIUM 33 DEB",
        "meta_object_id": "1997-051DY",
        "meta_epoch": "2025-12-03T17:28:33.100896",
        "meta_mean_motion": 14.42185911,
        "meta_eccentricity": 0.00553279,
        "meta_inclination": 86.2112,
        "meta_ra_of_asc_node": 336.5404,
        "meta_arg_of_pericenter": 122.4849,
        "meta_mean_anomaly": 238.1716,
        "meta_ephemeris_type": 0,
        "meta_classification_type": "U",
        "meta_norad_cat_id": 34145,
        "meta_element_set_no": 999,
        "meta_rev_at_epoch": 87508,
        "meta_bstar": 0.0014919446,
        "meta_mean_motion_dot": 5.023e-05,
        "meta_mean_motion_ddot": 0,
        "tle_line1": "1 34145U 97051DY  25337.72816089  .00005023  00000+0  14919-2 0  9995",
        "tle_line2": "2 34145  86.2112 336.5404 0055327 122.4849 238.1716 14.42185911875088"
      },
      "geometry": {
        "type": "Point",
        "coordinates": [
          151.1424527836243,
          53.67477266030639
        ]
      }
    },
    {
      "type": "Feature",
      "properties": {
        "norad_id": 34146,
        "name": "IRIDIUM 33 DEB",
        "group": "iridium-33-debris",
        "lat": -81.90473594693856,
        "lon": -33.63539953799718,
        "alt_km": 720.4222241273083,
        "timestamp": "2025-12-04T05:42:43.757139+00:00",
        "meta_object_name": "IRIDIUM 33 DEB",
        "meta_object_id": "1997-051DZ",
        "meta_epoch": "2025-12-03T19:18:36.417024",
        "meta_mean_motion": 14.48945152,
        "meta_eccentricity": 0.00249919,
        "meta_inclination": 86.2835,
        "meta_ra_of_asc_node": 353.7481,
        "meta_arg_of_pericenter": 253.6431,
        "meta_mean_anomaly": 284.0934,
        "meta_ephemeris_type": 0,
        "meta_classification_type": "U",
        "meta_norad_cat_id": 34146,
        "meta_element_set_no": 999,
        "meta_rev_at_epoch": 87977,
        "meta_bstar": 0.0014924324,
        "meta_mean_motion_dot": 5.693e-05,
        "meta_mean_motion_ddot": 0,
        "tle_line1": "1 34146U 97051DZ  25337.80458816  .00005693  00000+0  14924-2 0  9994",
        "tle_line2": "2 34146  86.2835 353.7481 0024991 253.6431 284.0934 14.48945152879773"
      },
      "geometry": {
        "type": "Point",
        "coordinates": [
          -33.63539953799718,
          -81.90473594693856
        ]
      }
    },
    {
      "type": "Feature",
      "properties": {
        "norad_id": 34159,
        "name": "IRIDIUM 33 DEB",
        "group": "iridium-33-debris",
        "lat": -46.363946295140266,
        "lon": 48.028872115379464,
        "alt_km": 751.5891985196258,
        "timestamp": "2025-12-04T05:42:43.757150+00:00",
        "meta_object_name": "IRIDIUM 33 DEB",
        "meta_object_id": "1997-051EN",
        "meta_epoch": "2025-12-03T16:34:14.750400",
        "meta_mean_motion": 14.3845649,
        "meta_eccentricity": 0.00264819,
        "meta_inclination": 86.3516,
        "meta_ra_of_asc_node": 52.0991,
        "meta_arg_of_pericenter": 319.5224,
        "meta_mean_anomaly": 40.4003,
        "meta_ephemeris_type": 0,
        "meta_classification_type": "U",
        "meta_norad_cat_id": 34159,
        "meta_element_set_no": 999,
        "meta_rev_at_epoch": 87829,
        "meta_bstar": 0.00061071366,
        "meta_mean_motion_dot": 1.89e-05,
        "meta_mean_motion_ddot": 0,
        "tle_line1": "1 34159U 97051EN  25337.69044850  .00001890  00000+0  61071-3 0  9995",
        "tle_line2": "2 34159  86.3516  52.0991 0026481 319.5224  40.4003 14.38456490878295"
      },
      "geometry": {
        "type": "Point",
        "coordinates": [
          48.028872115379464,
          -46.363946295140266
        ]
      }
    }
  ]
}